NORAD_CAT_ID,OBJECT_NAME,OBJECT_TYPE,EPOCH,MEAN_MOTION,ECCENTRICITY,INCLINATION,RA_OF_ASC_NODE,ARG_OF_PERICENTER,MEAN_ANOMALY,BSTAR,MEAN_MOTION_DOT,MEAN_MOTION_DDOT,TLE_LINE0,TLE_LINE1,TLE_LINE2,SEMIMAJOR_AXIS,PERIOD,APOGEE,PERIGEE,DECAYED
52311.0,STARLINK-3750,PAYLOAD,2023-12-18 17:23:22,15.08852001,0.0001782,53.2166,134.1739,59.3091,300.8077,0.00019397,2.801e-05,0.0,0 STARLINK-3750,1 52311U 22041BC  23352.72456156  .00002801  00000-0  19397-3 0  9995,2 52311  53.2166 134.1739 0001782  59.3091 300.8077 15.08852001 93287,6917.844,95.437,540.941,538.476,0.0
52311.0,STARLINK-3750,PAYLOAD,2023-12-19 14:03:23,15.08836826,0.0001993,53.217,130.307,58.7286,301.3901,4.7844e-05,4.73e-06,0.0,0 STARLINK-3750,1 52311U 22041BC  23353.58568979  .00000473  00000-0  47844-4 0  9999,2 52311  53.2170 130.3070 0001993  58.7286 301.3901 15.08836826 93415,6917.89,95.438,541.134,538.376,0.0
52311.0,STARLINK-3750,PAYLOAD,2023-12-19 15:38:46,15.08839082,0.0001514,53.2167,130.0097,72.8793,287.2365,3.4396e-05,2.59e-06,0.0,0 STARLINK-3750,1 52311U 22041BC  23353.65192850  .00000259  00000-0  34396-4 0  9998,2 52311  53.2167 130.0097 0001514  72.8793 287.2365 15.08839082 93420,6917.883,95.438,540.796,538.701,0.0
52311.0,STARLINK-3750,PAYLOAD,2023-12-20 13:54:10,15.08839847,0.0001398,53.217,125.8521,97.6303,262.4848,3.2333e-05,2.27e-06,0.0,0 STARLINK-3750,1 52311U 22041BC  23354.57929033  .00000227  00000-0  32333-4 0  9995,2 52311  53.2170 125.8521 0001398  97.6303 262.4848 15.08839847 93565,6917.881,95.438,540.713,538.779,0.0
52311.0,STARLINK-3750,PAYLOAD,2023-12-20 15:29:33,15.08841,0.0001415,53.2162,125.5561,81.1136,279.0016,6.3328e-05,7.2e-06,0.0,0 STARLINK-3750,1 52311U 22041BC  23354.64553075  .00000720  00000-0  63328-4 0  9998,2 52311  53.2162 125.5561 0001415  81.1136 279.0016 15.08841000 93575,6917.877,95.437,540.721,538.763,0.0
52311.0,STARLINK-3750,PAYLOAD,2023-12-21 12:09:34,15.08840633,0.0001487,53.2171,121.6878,96.5139,263.6022,0.00020927,3.044e-05,0.0,0 STARLINK-3750,1 52311U 22041BC  23355.50665200  .00003044  00000-0  20927-3 0  9997,2 52311  53.2171 121.6878 0001487  96.5139 263.6022 15.08840633 93707,6917.878,95.438,540.772,538.715,0.0
52311.0,STARLINK-3750,PAYLOAD,2023-12-21 13:44:57,15.08841177,0.000149,53.2171,121.3903,95.8424,264.2738,0.0002098,3.053e-05,0.0,0 STARLINK-3750,1 52311U 22041BC  23355.57289183  .00003053  00000-0  20980-3 0  9995,2 52311  53.2171 121.3903 0001490  95.8424 264.2738 15.08841177 93712,6917.877,95.437,540.773,538.711,0.0
52311.0,STARLINK-3750,PAYLOAD,2023-12-21 15:20:20,15.08843074,0.0001503,53.2172,121.0926,94.3562,265.7602,0.00023039,3.381e-05,0.0,0 STARLINK-3750,1 52311U 22041BC  23355.63913098  .00003381  00000-0  23039-3 0  9993,2 52311  53.2172 121.0926 0001503  94.3562 265.7602 15.08843074 93722,6917.871,95.437,540.776,538.696,0.0
52311.0,STARLINK-3750,PAYLOAD,2023-12-22 13:35:44,15.08843484,0.0001603,53.2178,116.9307,104.5505,255.5665,0.00013001,1.782e-05,0.0,0 STARLINK-3750,1 52311U 22041BC  23356.56649023  .00001782  00000-0  13001-3 0  9991,2 52311  53.2178 116.9307 0001603 104.5505 255.5665 15.08843484 93862,6917.87,95.437,540.844,538.626,0.0
52311.0,STARLINK-3750,PAYLOAD,2023-12-22 15:11:07,15.08846377,0.0001596,53.2173,116.6295,107.6255,252.4912,0.00012951,1.774e-05,0.0,0 STARLINK-3750,1 52311U 22041BC  23356.63272803  .00001774  00000-0  12951-3 0  9991,2 52311  53.2173 116.6295 0001596 107.6255 252.4912 15.08846377 93873,6917.861,95.437,540.83,538.622,0.0
52311.0,STARLINK-3750,PAYLOAD,2023-12-23 11:51:08,15.08841002,0.0001516,53.2167,112.764,103.2668,256.8494,-1.5251e-05,-5.31e-06,0.0,0 STARLINK-3750,1 52311U 22041BC  23357.49384948 -.00000531  00000-0 -15251-4 0  9999,2 52311  53.2167 112.7640 0001516 103.2668 256.8494 15.08841002 94008,6917.877,95.437,540.791,538.694,0.0
52311.0,STARLINK-3750,PAYLOAD,2023-12-23 13:26:31,15.08841068,0.0001511,53.2167,112.4667,103.6369,256.4792,-1.1874e-05,-4.77e-06,0.0,0 STARLINK-3750,1 52311U 22041BC  23357.56008953 -.00000477  00000-0 -11874-4 0  9992,2 52311  53.2167 112.4667 0001511 103.6369 256.4792 15.08841068 94011,6917.877,95.437,540.787,538.697,0.0
52311.0,STARLINK-3750,PAYLOAD,2023-12-23 15:01:55,15.08840062,0.0001456,53.2174,112.17,93.9716,266.1442,3.6269e-05,2.89e-06,0.0,0 STARLINK-3750,1 52311U 22041BC  23357.62633125  .00000289  00000-0  36269-4 0  9998,2 52311  53.2174 112.1700 0001456  93.9716 266.1442 15.08840062 94023,6917.88,95.438,540.752,538.738,0.0
52311.0,STARLINK-3750,PAYLOAD,2023-12-24 13:17:18,15.08845485,0.0001417,53.2163,108.0069,96.6821,263.4333,9.0653e-05,1.155e-05,0.0,0 STARLINK-3750,1 52311U 22041BC  23358.55368864  .00001155  00000-0  90653-4 0  9996,2 52311  53.2163 108.0069 0001417  96.6821 263.4333 15.08845485 94165,6917.864,95.437,540.709,538.748,0.0
52311.0,STARLINK-3750,PAYLOAD,2023-12-24 16:28:04,15.08851354,0.0001637,53.2177,107.4082,68.8275,291.2892,0.00015308,2.15e-05,0.0,0 STARLINK-3750,1 52311U 22041BC  23358.68616637  .00002150  00000-0  15308-3 0  9993,2 52311  53.2177 107.4082 0001637  68.8275 291.2892 15.08851354 94189,6917.846,95.437,540.843,538.578,0.0
52311.0,STARLINK-3750,PAYLOAD,2023-12-25 11:32:42,15.08843312,0.0001429,53.2168,103.8437,105.3666,254.7484,0.0001255,1.71e-05,0.0,0 STARLINK-3750,1 52311U 22041BC  23359.48105000  .00001710  00000-0  12550-3 0  9996,2 52311  53.2168 103.8437 0001429 105.3666 254.7484 15.08843312 94303,6917.87,95.437,540.724,538.747,0.0
52311.0,STARLINK-3750,PAYLOAD,2023-12-25 13:08:05,15.0884157,0.000143,53.217,103.5479,90.441,269.6746,0.00012384,1.684e-05,0.0,0 STARLINK-3750,1 52311U 22041BC  23359.54729161  .00001684  00000-0  12384-3 0  9998,2 52311  53.2170 103.5479 0001430  90.4410 269.6746 15.08841570 94313,6917.876,95.437,540.73,538.751,0.0
52311.0,STARLINK-3750,PAYLOAD,2023-12-26 11:23:30,15.08840057,0.0001302,53.2164,99.3829,84.6665,275.4476,-4.4681e-05,-9.99e-06,0.0,0 STARLINK-3750,1 52311U 22041BC  23360.47465498 -.00000999  00000-0 -44681-4 0  9998,2 52311  53.2164  99.3829 0001302  84.6665 275.4476 15.08840057 94451,6917.88,95.438,540.646,538.845,0.0
52311.0,STARLINK-3750,PAYLOAD,2023-12-26 12:58:53,15.0884225,0.0001349,53.2162,99.0857,80.7,279.4145,-5.0549e-06,-3.68e-06,0.0,0 STARLINK-3750,1 52311U 22041BC  23360.54089441 -.00000368  00000-0 -50549-5 0  9997,2 52311  53.2162  99.0857 0001349  80.7000 279.4145 15.08842250 94463,6917.874,95.437,540.672,538.805,0.0
52311.0,STARLINK-3750,PAYLOAD,2023-12-27 12:49:40,15.08847085,0.0001438,53.2161,94.6265,72.9026,287.2123,0.0002128,3.101e-05,0.0,0 STARLINK-3750,1 52311U 22041BC  23361.53449643  .00003101  00000-0  21280-3 0  9995,2 52311  53.2161  94.6265 0001438  72.9026 287.2123 15.08847085 94617,6917.859,95.437,540.719,538.729,0.0
52311.0,STARLINK-3750,PAYLOAD,2023-12-27 16:00:26,15.08854335,0.0001482,53.216,94.0294,110.2326,249.8825,0.00025704,3.807e-05,0.0,0 STARLINK-3750,1 52311U 22041BC  23361.66697059  .00003807  00000-0  25704-3 0  9993,2 52311  53.2160  94.0294 0001482 110.2326 249.8825 15.08854335 94631,6917.837,95.437,540.727,538.676,0.0
52311.0,STARLINK-3750,PAYLOAD,2023-12-28 11:05:02,15.08888891,0.000139,53.2162,90.4601,105.3191,254.7955,0.00099193,0.00015555,0.0,0 STARLINK-3750,1 52311U 22041BC  23362.46183719  .00015555  00000-0  99193-3 0  9991,2 52311  53.2162  90.4601 0001390 105.3191 254.7955 15.08888891 94754,6917.731,95.434,540.558,538.634,0.0
52311.0,STARLINK-3750,PAYLOAD,2023-12-28 12:40:27,15.08828263,0.0001599,53.2161,90.1631,64.6661,295.4497,-0.00022582,-3.879e-05,0.0,0 STARLINK-3750,1 52311U 22041BC  23362.52809804 -.00003879  00000-0 -22582-3 0  9994,2 52311  53.2161  90.1631 0001599  64.6661 295.4497 15.08828263 94764,6917.916,95.438,540.887,538.675,0.0
52311.0,STARLINK-3750,PAYLOAD,2023-12-29 10:55:51,15.08837786,0.0001501,53.2172,86.0021,73.5903,286.5254,-0.00011736,-2.155e-05,0.0,0 STARLINK-3750,1 52311U 22041BC  23363.45545550 -.00002155  00000-0 -11736-3 0  9997,2 52311  53.2172  86.0021 0001501  73.5903 286.5254 15.08837786 94902,6917.887,95.438,540.791,538.714,0.0
52311.0,STARLINK-3750,PAYLOAD,2023-12-29 12:31:14,15.08843248,0.0001443,53.2169,85.7047,79.2842,280.8312,1.3885e-05,-6.7e-07,0.0,0 STARLINK-3750,1 52311U 22041BC  23363.52169332 -.00000067  00000-0  13885-4 0  9992,2 52311  53.2169  85.7047 0001443  79.2842 280.8312 15.08843248 94915,6917.87,95.437,540.734,538.737,0.0
52311.0,STARLINK-3750,PAYLOAD,2023-12-30 12:22:01,15.08847987,0.0001302,53.2163,81.2438,97.69,262.424,-0.00019758,-3.432e-05,0.0,0 STARLINK-3750,1 52311U 22041BC  23364.51529256 -.00003432  00000-0 -19758-3 0  9991,2 52311  53.2163  81.2438 0001302  97.6900 262.4240 15.08847987 95064,6917.856,95.437,540.622,538.82,0.0
52311.0,STARLINK-3750,PAYLOAD,2023-12-31 04:15:53,15.0883677,0.0001235,53.2159,78.2719,95.8858,264.2275,9.7646e-06,-1.32e-06,0.0,0 STARLINK-3750,1 52311U 22041BC  23365.17770138 -.00000132  00000-0  97646-5 0  9998,2 52311  53.2159  78.2719 0001235  95.8858 264.2275 15.08836770 95161,6917.89,95.438,540.61,538.901,0.0
52311.0,STARLINK-3750,PAYLOAD,2023-12-31 12:12:49,15.08835755,0.0001235,53.2168,76.7845,93.3405,266.7729,3.6242e-05,2.89e-06,0.0,0 STARLINK-3750,1 52311U 22041BC  23365.50890384  .00000289  00000-0  36242-4 0  9997,2 52311  53.2168  76.7845 0001235  93.3405 266.7729 15.08835755 95214,6917.893,95.438,540.613,538.904,0.0
52311.0,STARLINK-3750,PAYLOAD,2024-01-01 12:03:36,15.08843395,0.0001133,53.2166,72.3245,90.3016,269.8106,0.00016155,2.284e-05,0.0,0 STARLINK-3750,1 52311U 22041BC  24001.50250405  .00002284  00000-0  16155-3 0  9996,2 52311  53.2166  72.3245 0001133  90.3016 269.8106 15.08843395 95368,6917.87,95.437,540.519,538.951,0.0
52311.0,STARLINK-3750,PAYLOAD,2024-01-01 13:38:59,15.08846387,0.0001161,53.2168,72.0267,97.8196,262.2928,0.00022588,3.309e-05,0.0,0 STARLINK-3750,1 52311U 22041BC  24001.56874241  .00003309  00000-0  22588-3 0  9998,2 52311  53.2168  72.0267 0001161  97.8196 262.2928 15.08846387 95377,6917.861,95.437,540.529,538.923,0.0
